{
  "norad_id": 67497,
  "name": "STARLINK-36555",
  "history": [
    {
      "epoch": "2026-03-28T16:19:07.722336Z",
      "apogee_km": 483.937844804881,
      "perigee_km": 481.95801013821074,
      "latitude_deg": 4.577549948583877e-05,
      "longitude_deg": 136.4952467903091,
      "height_km": 482.8347089744765,
      "semi_major_axis_km": 6861.084927471546,
      "eccentricity": 0.00014428,
      "inclination_deg": 43.0008,
      "raan_deg": 207.3743,
      "arg_perigee_deg": 263.6209,
      "mean_anomaly_deg": 96.4479,
      "mean_motion_rev_day": 15.27613787
    },
    {
      "epoch": "2026-03-29T00:09:54.760320Z",
      "apogee_km": 483.5670063715661,
      "perigee_km": 482.4335464934993,
      "latitude_deg": -1.3137197437240236e-05,
      "longitude_deg": 16.629752068862693,
      "height_km": 482.81599302607594,
      "semi_major_axis_km": 6861.137276432532,
      "eccentricity": 8.26e-05,
      "inclination_deg": 43.0003,
      "raan_deg": 205.5271,
      "arg_perigee_deg": 266.0047,
      "mean_anomaly_deg": 94.071,
      "mean_motion_rev_day": 15.27596304
    },
    {
      "epoch": "2026-03-29T08:00:41.926176Z",
      "apogee_km": 484.21665533144096,
      "perigee_km": 481.9196610685776,
      "latitude_deg": 1.7092290642795745e-05,
      "longitude_deg": -103.23558156065113,
      "height_km": 482.64243446901355,
      "semi_major_axis_km": 6861.205158200009,
      "eccentricity": 0.00016739,
      "inclination_deg": 43.0001,
      "raan_deg": 203.6805,
      "arg_perigee_deg": 280.1637,
      "mean_anomaly_deg": 79.9026,
      "mean_motion_rev_day": 15.27573634
    },
    {
      "epoch": "2026-03-30T15:23:50.664768Z",
      "apogee_km": 483.7123238381291,
      "perigee_km": 482.13222188758846,
      "latitude_deg": -1.3881662951251668e-05,
      "longitude_deg": 137.3044082969929,
      "height_km": 482.2000461442882,
      "semi_major_axis_km": 6861.059272862858,
      "eccentricity": 0.00011515,
      "inclination_deg": 43.0017,
      "raan_deg": 196.2959,
      "arg_perigee_deg": 309.1451,
      "mean_anomaly_deg": 50.9298,
      "mean_motion_rev_day": 15.27622355
    },
    {
      "epoch": "2026-03-31T13:22:01.714656Z",
      "apogee_km": 484.52366332566453,
      "perigee_km": 481.5037964434132,
      "latitude_deg": -4.543065042127379e-05,
      "longitude_deg": 161.68646965040696,
      "height_km": 482.85134518303323,
      "semi_major_axis_km": 6861.150729884539,
      "eccentricity": 0.00022007,
      "inclination_deg": 43.0021,
      "raan_deg": 191.1263,
      "arg_perigee_deg": 267.7201,
      "mean_anomaly_deg": 92.3398,
      "mean_motion_rev_day": 15.27591811
    },
    {
      "epoch": "2026-04-01T12:54:23.103360Z",
      "apogee_km": 484.0951983611012,
      "perigee_km": 481.9531438434824,
      "latitude_deg": 9.253713550037053e-06,
      "longitude_deg": 162.09238599071716,
      "height_km": 482.6802658207867,
      "semi_major_axis_km": 6861.1611711022915,
      "eccentricity": 0.0001561,
      "inclination_deg": 43.0015,
      "raan_deg": 185.588,
      "arg_perigee_deg": 276.4822,
      "mean_anomaly_deg": 83.5852,
      "mean_motion_rev_day": 15.27588324
    },
    {
      "epoch": "2026-04-02T12:26:42.687168Z",
      "apogee_km": 483.43136651640907,
      "perigee_km": 482.4053642970666,
      "latitude_deg": -1.4759056085595793e-06,
      "longitude_deg": 162.5050732122607,
      "height_km": 483.0894114068338,
      "semi_major_axis_km": 6861.055365406738,
      "eccentricity": 7.477e-05,
      "inclination_deg": 42.9973,
      "raan_deg": 180.049,
      "arg_perigee_deg": 140.615,
      "mean_anomaly_deg": 219.4756,
      "mean_motion_rev_day": 15.2762366
    },
    {
      "epoch": "2026-04-03T05:42:25.615872Z",
      "apogee_km": 484.5062355949058,
      "perigee_km": 481.38993075012786,
      "latitude_deg": -3.67270938292674e-05,
      "longitude_deg": -101.19435571584597,
      "height_km": 482.6711257153387,
      "semi_major_axis_km": 6861.0850831725165,
      "eccentricity": 0.0002271,
      "inclination_deg": 43.001,
      "raan_deg": 175.9874,
      "arg_perigee_deg": 272.0025,
      "mean_anomaly_deg": 88.0566,
      "mean_motion_rev_day": 15.27613735
    },
    {
      "epoch": "2026-04-04T11:31:24.192768Z",
      "apogee_km": 484.8472272837007,
      "perigee_km": 481.20751680761714,
      "latitude_deg": 1.7135057311071302e-05,
      "longitude_deg": 163.32132005588358,
      "height_km": 482.16855091885304,
      "semi_major_axis_km": 6861.164372045659,
      "eccentricity": 0.00026524,
      "inclination_deg": 43.0008,
      "raan_deg": 168.9716,
      "arg_perigee_deg": 290.4728,
      "mean_anomaly_deg": 69.5839,
      "mean_motion_rev_day": 15.27587255
    },
    {
      "epoch": "2026-04-05T12:37:56.221824Z",
      "apogee_km": 484.32946361859103,
      "perigee_km": 482.0615187769499,
      "latitude_deg": 5.6106247736791186e-05,
      "longitude_deg": 139.7474200217039,
      "height_km": 483.0861738534173,
      "semi_major_axis_km": 6861.33249119777,
      "eccentricity": 0.00016527,
      "inclination_deg": 43.0009,
      "raan_deg": 163.0623,
      "arg_perigee_deg": 264.2455,
      "mean_anomaly_deg": 95.8209,
      "mean_motion_rev_day": 15.27531111
    },
    {
      "epoch": "2026-04-06T04:19:31.243872Z",
      "apogee_km": 484.1369343713377,
      "perigee_km": 482.054413030216,
      "latitude_deg": 3.106572893379401e-05,
      "longitude_deg": -99.98472431889981,
      "height_km": 482.9744438495565,
      "semi_major_axis_km": 6861.232673700776,
      "eccentricity": 0.00015176,
      "inclination_deg": 43.0004,
      "raan_deg": 159.3706,
      "arg_perigee_deg": 264.3812,
      "mean_anomaly_deg": 95.6867,
      "mean_motion_rev_day": 15.27564445
    },
    {
      "epoch": "2026-04-07T10:08:28.383936Z",
      "apogee_km": 483.9869228575262,
      "perigee_km": 481.8476461316204,
      "latitude_deg": -3.9245696012231235e-05,
      "longitude_deg": 164.53711946411624,
      "height_km": 482.78025559128287,
      "semi_major_axis_km": 6861.054284494573,
      "eccentricity": 0.0001559,
      "inclination_deg": 43.0008,
      "raan_deg": 152.3551,
      "arg_perigee_deg": 265.3848,
      "mean_anomaly_deg": 94.6825,
      "mean_motion_rev_day": 15.27624021
    }
  ]
}